ONEWEB-0427             
1 50499U 21132AG  25066.40681585  .00000031  00000+0  46134-4 0  9997
2 50499  87.9047  68.2521 0001665  89.3912 270.7411 13.18685228160090
ONEWEB-0429             
1 50500U 21132AH  25066.39415859  .00000083  00000+0  17789-3 0  9997
2 50500  87.9055  68.2769 0002034  87.0422 273.0943 13.18688767160062
ONEWEB-0430             
1 50501U 21132AJ  25066.45898274  .00000031  00000+0  45537-4 0  9997
2 50501  87.9052  68.2598 0001989  79.0319 281.1037 13.18685050160116
ONEWEB-0432             
1 50502U 21132AK  25066.41471788  .00000074  00000+0  15378-3 0  9997
2 50502  87.9049  68.2583 0001134  65.8614 294.2637 13.18684068160063
ONEWEB-0440             
1 50503U 21132AL  25066.47795106  .00000051  00000+0  96738-4 0  9992
2 50503  87.9053  68.2424 0002251  96.8675 263.2713 13.18685395160060
ONEWEB-0450             
1 50504U 21132AM  25066.39589134  .00000033  00000+0  49895-4 0  9998
2 50504  87.9053  68.2874 0002221  83.6361 276.5024 13.18685370160080
ONEWEB-0410             
1 51622U 22012A   25066.36170638 -.00000001  00000+0 -36152-4 0  9999
2 51622  87.9013  98.8410 0001238 142.7892 217.3326 13.17648812152220
ONEWEB-0411             
1 51623U 22012B   25066.23961948  .00000631  00000+0  17718-2 0  9990
2 51623  87.8866 129.3440 0001952  83.5966 276.5384 13.10371712148137
